IRIDIUM 136             
1 42962U 17061H   23198.46965829  .00000362  00000+0  12223-3 0  9993
2 42962  86.3973 110.6645 0002126  77.7795 282.3639 14.34219070302084
